0 BREEZE-M DEB
1 38606U 08011BD  13280.14800370  .00000039  00000-0 -22268-3 0  2911
2 38606 048.2734 149.2605 6599237 291.8782 338.5456 03.06745424 31359
0 BREEZE-M DEB
1 38606U 08011BD  13292.19279977  .00000660  00000-0  12015-2 0  2931
2 38606 048.2855 144.6498 6596901 296.0388 319.4979 03.06741614 31722
0 BREEZE-M DEB
1 38606U 08011BD  13293.19327447  .00000588  00000-0  10917-2 0  2947
2 38606 048.2866 144.2667 6596758 296.3850 344.2960 03.06743247 31758
